      2.10          N: GNSS NAV DATA                        RINEX VERSION / TYPE
fic2rin                                 11/19/2019 00:18:51 PGM / RUN BY / DATE
                                                            END OF HEADER
14 19 11 18  8  0  0.0-4.984484985471e-05 2.160049916711e-12 0.000000000000e+00
    1.070000000000e+02 1.550000000000e+01 4.580547941065e-09 3.004694175356e+00
    8.177012205124e-07 1.074562908616e-02 7.221475243568e-06 5.153755916595e+03
    1.152000000000e+05 7.078051567078e-08 2.341213697039e+00-6.519258022308e-08
    9.603651888935e-01 2.375312500000e+02-1.934223454936e+00-7.781752712664e-09
    1.682212928064e-10 1.000000000000e+00 2.080000000000e+03 0.000000000000e+00
    2.400000000000e+00 0.000000000000e+00-9.778887033463e-09 1.070000000000e+02
    1.080000000000e+05 4.000000000000e+00
19 19 11 18  8  0  0.0-2.382025122643e-04 5.229594535194e-12 0.000000000000e+00
    1.030000000000e+02 3.500000000000e+01 4.256963033883e-09-3.147646986874e-01
    1.866370439529e-06 9.208088507876e-03 3.878027200699e-06 5.153659282684e+03
    1.152000000000e+05-1.210719347000e-07-7.782603052084e-01-5.587935447693e-09
    9.822775292876e-01 3.180312500000e+02 1.529749328063e+00-8.328204045984e-09
    1.628639267934e-10 1.000000000000e+00 2.080000000000e+03 0.000000000000e+00
    2.400000000000e+00 0.000000000000e+00-1.536682248116e-08 1.030000000000e+02
    1.080000000000e+05 4.000000000000e+00
11 19 11 18  8  0  0.0-4.447717219591e-04 1.114131009672e-11 0.000000000000e+00
    1.160000000000e+02-4.534375000000e+01 6.075253058675e-09 3.135989299913e-01
   -2.419576048851e-06 1.638398692012e-02 2.400949597359e-06 5.153743457794e+03
    1.152000000000e+05-1.527369022369e-07-2.883035315593e-01-1.676380634308e-07
    9.114394795356e-01 3.097187500000e+02 1.969769002477e+00-9.331460121341e-09
   -2.000083311498e-11 1.000000000000e+00 2.080000000000e+03 0.000000000000e+00
    2.400000000000e+00 0.000000000000e+00-1.210719347000e-08 1.160000000000e+02
    1.080000000000e+05 4.000000000000e+00
12 19 11 18  8  0  0.0 1.823301427066e-04-3.979039320257e-12 0.000000000000e+00
    7.000000000000e+01 7.046875000000e+01 4.066955119291e-09-1.330183308731e-01
    3.671273589134e-06 7.610890199430e-03 8.579343557358e-06 5.153794647217e+03
    1.152000000000e+05-3.352761268616e-08-1.858334292842e+00 1.508742570877e-07
    9.805737300432e-01 2.309062500000e+02 1.095125509950e+00-7.909258023772e-09
   -2.642967233051e-11 1.000000000000e+00 2.080000000000e+03 0.000000000000e+00
    2.400000000000e+00 0.000000000000e+00-1.257285475731e-08 7.000000000000e+01
    1.080000000000e+05 4.000000000000e+00
17 19 11 18  8  0  0.0 1.650596968830e-04 6.934897101019e-12 0.000000000000e+00
    1.030000000000e+02 4.287500000000e+01 4.150530029093e-09-3.043142352785e+00
    2.250075340271e-06 1.338482007850e-02 3.313645720482e-06 5.153605627060e+03
    1.152000000000e+05 2.626329660416e-07-8.241970886027e-01-7.264316082001e-08
    9.842495223776e-01 3.254062500000e+02-1.689182984063e+00-7.949974005471e-09
    1.660783464012e-10 1.000000000000e+00 2.080000000000e+03 0.000000000000e+00
    2.400000000000e+00 0.000000000000e+00-1.117587089539e-08 1.030000000000e+02
    1.080000000000e+05 4.000000000000e+00
32 19 11 18  8  0  0.0 1.286077313125e-04 1.205080479849e-11 0.000000000000e+00
    9.800000000000e+01 1.556250000000e+01 4.697338520147e-09-2.194504326942e+00
    9.182840585709e-07 3.272490226664e-03 7.648020982742e-06 5.153642410278e+03
    1.152000000000e+05-5.960464477539e-08 2.254427871136e+00-3.166496753693e-08
    9.566095899892e-01 2.308437500000e+02-2.540444905625e+00-7.956045686952e-09
    2.242950570751e-10 1.000000000000e+00 2.080000000000e+03 0.000000000000e+00
    2.400000000000e+00 0.000000000000e+00 4.656612873077e-10 9.800000000000e+01
    1.080000000000e+05 4.000000000000e+00
20 19 11 18  8  0  0.0 5.274862051010e-04 1.136868377216e-13 0.000000000000e+00
    9.500000000000e+01-6.868750000000e+01 5.079140138003e-09 7.102275047406e-01
   -3.872439265251e-06 5.057844682597e-03 8.804723620415e-06 5.153624958038e+03
    1.152000000000e+05 8.381903171539e-08 1.087404538467e+00-5.029141902924e-08
    9.319263320724e-01 1.955937500000e+02 2.487278698536e+00-8.305345950996e-09
    4.678766317969e-11 1.000000000000e+00 2.080000000000e+03 0.000000000000e+00
    2.400000000000e+00 0.000000000000e+00-8.381903171539e-09 9.500000000000e+01
    1.080000000000e+05 4.000000000000e+00
18 19 11 18  8  0  0.0 1.009306870401e-04 2.614797267597e-12 0.000000000000e+00
    2.700000000000e+01-8.850000000000e+01 4.868059917093e-09 8.406438207608e-01
   -4.699453711510e-06 1.563264802098e-02 4.967674612999e-06 5.153666231155e+03
    1.152000000000e+05-2.793967723846e-07 1.147617642424e-01 1.117587089539e-08
    9.566417654094e-01 2.851562500000e+02 1.444853116869e+00-8.633216750988e-09
   -1.592923494515e-10 1.000000000000e+00 2.080000000000e+03 0.000000000000e+00
    2.400000000000e+00 6.300000000000e+01-5.587935447693e-09 2.700000000000e+01
    1.080000000000e+05 4.000000000000e+00
 4 19 11 18  8  0  0.0-1.032231375575e-05-4.206412995700e-12 0.000000000000e+00
    1.070000000000e+02 5.906250000000e+00 4.746983445200e-09 4.227893521307e-01
    3.334134817123e-07 1.302886521444e-03 7.651746273041e-06 5.150590595245e+03
    1.152000000000e+05 2.235174179077e-08 2.293388892053e+00-4.284083843231e-08
    9.597744260001e-01 2.342812500000e+02-1.267770504096e+00-8.049621013311e-09
    1.535778257043e-10 1.000000000000e+00 2.080000000000e+03 0.000000000000e+00
    1.920000000000e+02 6.300000000000e+01-4.190951585770e-09 3.630000000000e+02
    1.084800000000e+05 4.000000000000e+00
11 19 11 18  7 59 44.0-4.447763785720e-04 1.114131009672e-11 0.000000000000e+00
    4.000000000000e+00-4.534375000000e+01 6.074895900941e-09 3.112649992652e-01
   -2.419576048851e-06 1.638398738578e-02 2.400949597359e-06 5.153743455887e+03
    1.151840000000e+05-1.527369022369e-07-2.883033852675e-01-1.676380634308e-07
    9.114394853873e-01 3.097187500000e+02 1.969769311153e+00-9.331460121341e-09
   -2.035799084918e-11 1.000000000000e+00 2.080000000000e+03 0.000000000000e+00
    2.400000000000e+00 0.000000000000e+00-1.210719347000e-08 4.000000000000e+00
    1.087200000000e+05 4.000000000000e+00
 3 19 11 18  7 59 44.0-3.847293555737e-05-5.911715561524e-12 0.000000000000e+00
    6.000000000000e+00-6.721875000000e+01 4.374110770699e-09-4.797593320162e-02
   -3.512948751450e-06 2.615675446577e-03 1.027807593346e-05 5.153674077988e+03
    1.151840000000e+05 0.000000000000e+00 1.215008650490e+00 5.587935447693e-08
    9.638360907734e-01 1.806562500000e+02 7.899967907887e-01-7.901757711354e-09
    1.896507568581e-10 1.000000000000e+00 2.080000000000e+03 0.000000000000e+00
    2.400000000000e+00 0.000000000000e+00 2.328306436539e-09 6.000000000000e+00
    1.144200000000e+05 4.000000000000e+00
 3 19 11 18  9 59 44.0-3.851577639580e-05-5.911715561524e-12 0.000000000000e+00
    7.000000000000e+00-6.062500000000e+01 4.371610666560e-09 1.002397432231e+00
   -3.181397914886e-06 2.615889534354e-03 1.006200909615e-05 5.153673988342e+03
    1.223840000000e+05-4.470348358154e-08 1.214952066282e+00 2.235174179077e-08
    9.638373415683e-01 1.855312500000e+02 7.898022080550e-01-7.884614140113e-09
    1.457203555520e-10 1.000000000000e+00 2.080000000000e+03 0.000000000000e+00
    2.400000000000e+00 0.000000000000e+00 2.328306436539e-09 7.000000000000e+00
    1.152000000000e+05 4.000000000000e+00
11 19 11 18  9 59 44.0-4.446962848306e-04 1.114131009672e-11 0.000000000000e+00
    5.000000000000e+00-4.425000000000e+01 5.870958834715e-09 1.361411679690e+00
   -2.555549144745e-06 1.638394198380e-02 2.140179276466e-06 5.153743474960e+03
    1.223840000000e+05 2.756714820862e-07-2.883698748942e-01-3.874301910400e-07
    9.114415100659e-01 3.100937500000e+02 1.969772019014e+00-8.868226540089e-09
    4.857345185067e-11 1.000000000000e+00 2.080000000000e+03 0.000000000000e+00
    2.400000000000e+00 0.000000000000e+00-1.210719347000e-08 5.000000000000e+00
    1.152000000000e+05 4.000000000000e+00
 2 19 11 18 10  0  0.0-3.491379320621e-04-7.617018127348e-12 0.000000000000e+00
    2.600000000000e+01-9.418750000000e+01 4.638050336270e-09 2.475043205747e+00
   -4.908069968224e-06 1.940151862800e-02 3.630295395851e-06 5.153581777573e+03
    1.224000000000e+05 1.825392246246e-07 1.012591839772e-01-1.583248376846e-07
    9.571593194933e-01 3.027187500000e+02-1.699361006921e+00-8.022477025512e-09
   -1.589351917173e-10 1.000000000000e+00 2.080000000000e+03 0.000000000000e+00
    2.400000000000e+00 0.000000000000e+00-1.769512891769e-08 2.600000000000e+01
    1.152000000000e+05 4.000000000000e+00
 1 19 11 18 10  0  0.0-2.012080512941e-04-1.261923898710e-11 0.000000000000e+00
    1.730000000000e+02-8.753125000000e+01 4.238033673971e-09 2.180264690513e+00
   -4.600733518600e-06 9.157833526842e-03 5.446374416351e-06 5.153643877029e+03
    1.224000000000e+05-2.011656761169e-07 1.735694705966e-01-1.750886440277e-07
    9.780794503293e-01 2.837187500000e+02 7.633469847631e-01-7.946759585863e-09
   -2.750114553310e-11 1.000000000000e+00 2.080000000000e+03 0.000000000000e+00
    2.400000000000e+00 0.000000000000e+00 5.587935447693e-09 1.730000000000e+02
    1.152000000000e+05 4.000000000000e+00
 8 19 11 18 10  0  0.0-1.377379521728e-05-1.364242052659e-12 0.000000000000e+00
    3.800000000000e+01 4.084375000000e+01 4.466614623856e-09-1.696479096341e+00
    1.991167664528e-06 4.695471841842e-03 3.632158041000e-06 5.153583835602e+03
    1.224000000000e+05-3.352761268616e-08-8.942339025114e-01-5.215406417847e-08
    9.701686944831e-01 3.176562500000e+02-2.378211691091e-01-8.204627469952e-09
    1.978653847446e-10 1.000000000000e+00 2.080000000000e+03 0.000000000000e+00
    2.400000000000e+00 0.000000000000e+00 5.122274160385e-09 3.800000000000e+01
    1.152000000000e+05 4.000000000000e+00
